CTC2_L_00629007-03
1 10062U 24695VZ  26075.70050926  .00000000  00000+0  00000-0 0  9993
2 10062  70.0000 180.0000 0000000   0.0000 144.0000  4.55247085    17
CTC2_L_00629007-04
1 10063U 22375AS  26075.70050926  .00000000  00000+0  00000-0 0  9997
2 10063  70.0000 180.0000 0000000   0.0000 180.0000  4.55247085    18
CTC2_L_00629007-05
1 10064U 24587EZ  26075.70050926  .00000000  00000+0  00000-0 0  9995
2 10064  70.0000 180.0000 0000000   0.0000 216.0000  4.55247085    19
CTC2_L_00629007-06
1 10065U 23640TF  26075.70050926  .00000000  00000+0  00000-0 0  9995
2 10065  70.0000 180.0000 0000000   0.0000 252.0000  4.55247085    10
CTC2_L_00629007-07
1 10066U 24745XM  26075.70050926  .00000000  00000+0  00000-0 0  9993
2 10066  70.0000 180.0000 0000000   0.0000 288.0000  4.55247085    10
CTC2_L_00629007-08
1 10067U 24546BQ  26075.70050926  .00000000  00000+0  00000-0 0  9993
2 10067  70.0000 180.0000 0000000   0.0000 324.0000  4.55247085    12
CTC2_L_00629007-09
1 10068U 23494TI  26075.70050926  .00000000  00000+0  00000-0 0  9995
2 10068  70.0000 180.0000 0000000   0.0000   0.0000  4.55247085    14
CTC2_L_00629007-10
1 10069U 23290OY  26075.70050926  .00000000  00000+0  00000-0 0  9990
2 10069  70.0000 180.0000 0000000   0.0000  36.0000  4.55247085    14
CTC2_L_00629008-01
1 10070U 26138IM  26075.70050926  .00000000  00000+0  00000-0 0  9996
2 10070  70.0000 210.0000 0000000   0.0000  84.0000  4.55247085    13
CTC2_L_00629008-02
1 10071U 25605GX  26075.70050926  .00000000  00000+0  00000-0 0  9995
2 10071  70.0000 210.0000 0000000   0.0000 120.0000  4.55247085    15
CTC2_L_00629008-03
1 10072U 24163MJ  26075.70050926  .00000000  00000+0  00000-0 0  9994
2 10072  70.0000 210.0000 0000000   0.0000 156.0000  4.55247085    15
CTC2_L_00629008-04
1 10073U 24289QN  26075.70050926  .00000000  00000+0  00000-0 0  9994
2 10073  70.0000 210.0000 0000000   0.0000 192.0000  4.55247085    16
CTC2_L_00629008-05
1 10074U 26434YY  26075.70050926  .00000000  00000+0  00000-0 0  9999
2 10074  70.0000 210.0000 0000000   0.0000 228.0000  4.55247085    17
CTC2_L_00629008-06
1 10075U 25841HV  26075.70050926  .00000000  00000+0  00000-0 0  9991
2 10075  70.0000 210.0000 0000000   0.0000 264.0000  4.55247085    18
CTC2_L_00629008-07
1 10076U 23699MU  26075.70050926  .00000000  00000+0  00000-0 0  9991
2 10076  70.0000 210.0000 0000000   0.0000 300.0000  4.55247085    10
CTC2_L_00629008-08
1 10077U 23158NH  26075.70050926  .00000000  00000+0  00000-0 0  9992
2 10077  70.0000 210.0000 0000000   0.0000 336.0000  4.55247085    10
CTC2_L_00629008-09
1 10078U 22029JD  26075.70050926  .00000000  00000+0  00000-0 0  9999
2 10078  70.0000 210.0000 0000000   0.0000  12.0000  4.55247085    12
CTC2_L_00629008-10
1 10079U 23781YK  26075.70050926  .00000000  00000+0  00000-0 0  9996
2 10079  70.0000 210.0000 0000000   0.0000  48.0000  4.55247085    12
CTC2_L_00629009-01
1 10080U 22648WF  26075.70050926  .00000000  00000+0  00000-0 0  9999
2 10080  70.0000 240.0000 0000000   0.0000  96.0000  4.55247085    10
CTC2_L_00629009-02
1 10081U 22314GE  26075.70050926  .00000000  00000+0  00000-0 0  9990
2 10081  70.0000 240.0000 0000000   0.0000 132.0000  4.55247085    12
CTC2_L_00629009-03
1 10082U 24736HG  26075.70050926  .00000000  00000+0  00000-0 0  9991
2 10082  70.0000 240.0000 0000000   0.0000 168.0000  4.55247085    12
CTC2_L_00629009-04
1 10083U 25450SM  26075.70050926  .00000000  00000+0  00000-0 0  9996
2 10083  70.0000 240.0000 0000000   0.0000 204.0000  4.55247085    14
CTC2_L_00629009-05
1 10084U 25249JT  26075.70050926  .00000000  00000+0  00000-0 0  9993
2 10084  70.0000 240.0000 0000000   0.0000 240.0000  4.55247085    15
CTC2_L_00629009-06
1 10085U 24303LK  26075.70050926  .00000000  00000+0  00000-0 0  9994
2 10085  70.0000 240.0000 0000000   0.0000 276.0000  4.55247085    15
CTC2_L_00629009-07
1 10086U 26484TT  26075.70050926  .00000000  00000+0  00000-0 0  9997
2 10086  70.0000 240.0000 0000000   0.0000 312.0000  4.55247085    17
CTC2_L_00629009-08
1 10087U 25652BA  26075.70050926  .00000000  00000+0  00000-0 0  9994
2 10087  70.0000 240.0000 0000000   0.0000 348.0000  4.55247085    17
CTC2_L_00629009-09
1 10088U 25086VV  26075.70050926  .00000000  00000+0  00000-0 0  9996
2 10088  70.0000 240.0000 0000000   0.0000  24.0000  4.55247085    19
CTC2_L_00629009-10
1 10089U 22134EC  26075.70050926  .00000000  00000+0  00000-0 0  9998
2 10089  70.0000 240.0000 0000000   0.0000  60.0000  4.55247085    10
CTC2_L_00629010-01
1 10090U 22316ME  26075.70050926  .00000000  00000+0  00000-0 0  9992
2 10090  70.0000 270.0000 0000000   0.0000 108.0000  4.55247085    18
CTC2_L_00629010-02
1 10091U 25473QZ  26075.70050926  .00000000  00000+0  00000-0 0  9990
2 10091  70.0000 270.0000 0000000   0.0000 144.0000  4.55247085    19
CTC2_L_00629010-03
1 10092U 23734RP  26075.70050926  .00000000  00000+0  00000-0 0  9999
2 10092  70.0000 270.0000 0000000   0.0000 180.0000  4.55247085    10
CTC2_L_00629010-04
1 10093U 23551FO  26075.70050926  .00000000  00000+0  00000-0 0  9997
2 10093  70.0000 270.0000 0000000   0.0000 216.0000  4.55247085    11
CTC2_L_00629010-05
1 10094U 22200QH  26075.70050926  .00000000  00000+0  00000-0 0  9998
2 10094  70.0000 270.0000 0000000   0.0000 252.0000  4.55247085    12
CTC2_L_00629010-06
1 10095U 23056MD  26075.70050926  .00000000  00000+0  00000-0 0  9999
2 10095  70.0000 270.0000 0000000   0.0000 288.0000  4.55247085    12
CTC2_L_00629010-07
1 10096U 23647HL  26075.70050926  .00000000  00000+0  00000-0 0  9996
2 10096  70.0000 270.0000 0000000   0.0000 324.0000  4.55247085    14
CTC2_L_00629010-08
1 10097U 24024FY  26075.70050926  .00000000  00000+0  00000-0 0  9997
2 10097  70.0000 270.0000 0000000   0.0000   0.0000  4.55247085    16
CTC2_L_00629010-09
1 10098U 23466G   26075.70050926  .00000000  00000+0  00000-0 0  9997
2 10098  70.0000 270.0000 0000000   0.0000  36.0000  4.55247085    16
CTC2_L_00629010-10
1 10099U 25509BT  26075.70050926  .00000000  00000+0  00000-0 0  9998
2 10099  70.0000 270.0000 0000000   0.0000  72.0000  4.55247085    17
CTC2_L_00629011-01
1 10100U 25451NP  26075.70050926  .00000000  00000+0  00000-0 0  9997
2 10100  70.0000 300.0000 0000000   0.0000 120.0000  4.55247085    18
CTC2_L_00629011-02
1 10101U 25271TU  26075.70050926  .00000000  00000+0  00000-0 0  9998
2 10101  70.0000 300.0000 0000000   0.0000 156.0000  4.55247085    18
CTC2_L_00629011-03
1 10102U 26258JO  26075.70050926  .00000000  00000+0  00000-0 0  9995
2 10102  70.0000 300.0000 0000000   0.0000 192.0000  4.55247085    19
CTC2_L_00629011-04
1 10103U 26379NI  26075.70050926  .00000000  00000+0  00000-0 0  9990
2 10103  70.0000 300.0000 0000000   0.0000 228.0000  4.55247085    10
CTC2_L_00629011-05
1 10104U 26447QD  26075.70050926  .00000000  00000+0  00000-0 0  9997
2 10104  70.0000 300.0000 0000000   0.0000 264.0000  4.55247085    11
CTC2_L_00629011-06
1 10105U 25745ZB  26075.70050926  .00000000  00000+0  00000-0 0  9998
2 10105  70.0000 300.0000 0000000   0.0000 300.0000  4.55247085    13
CTC2_L_00629011-07
1 10106U 22133YY  26075.70050926  .00000000  00000+0  00000-0 0  9997
2 10106  70.0000 300.0000 0000000   0.0000 336.0000  4.55247085    13
CTC2_L_00629011-08
1 10107U 24015IS  26075.70050926  .00000000  00000+0  00000-0 0  9999
2 10107  70.0000 300.0000 0000000   0.0000  12.0000  4.55247085    15
CTC2_L_00629011-09
1 10108U 26766MX  26075.70050926  .00000000  00000+0  00000-0 0  9995
2 10108  70.0000 300.0000 0000000   0.0000  48.0000  4.55247085    15
CTC2_L_00629011-10
1 10109U 24211AO  26075.70050926  .00000000  00000+0  00000-0 0  9999
2 10109  70.0000 300.0000 0000000   0.0000  84.0000  4.55247085    16
CTC2_L_00629012-01
1 10110U 23565YB  26075.70050926  .00000000  00000+0  00000-0 0  9992
2 10110  70.0000 330.0000 0000000   0.0000 132.0000  4.55247085    15
CTC2_L_00629012-02
1 10111U 25306AA  26075.70050926  .00000000  00000+0  00000-0 0  9998
2 10111  70.0000 330.0000 0000000   0.0000 168.0000  4.55247085    15
CTC2_L_00629012-03
1 10112U 22681ZI  26075.70050926  .00000000  00000+0  00000-0 0  9992
2 10112  70.0000 330.0000 0000000   0.0000 204.0000  4.55247085    17
CTC2_L_00629012-04
1 10113U 22185XR  26075.70050926  .00000000  00000+0  00000-0 0  9992
2 10113  70.0000 330.0000 0000000   0.0000 240.0000  4.55247085    18
CTC2_L_00629012-05
1 10114U 24937BL  26075.70050926  .00000000  00000+0  00000-0 0  9990
2 10114  70.0000 330.0000 0000000   0.0000 276.0000  4.55247085    18
CTC2_L_00629012-06
1 10115U 26649KX  26075.70050926  .00000000  00000+0  00000-0 0  9993
2 10115  70.0000 330.0000 0000000   0.0000 312.0000  4.55247085    10
CTC2_L_00629012-07
1 10116U 24880LI  26075.70050926  .00000000  00000+0  00000-0 0  9999
2 10116  70.0000 330.0000 0000000   0.0000 348.0000  4.55247085    10
CTC2_L_00629012-08
1 10117U 25185SJ  26075.70050926  .00000000  00000+0  00000-0 0  9999
2 10117  70.0000 330.0000 0000000   0.0000  24.0000  4.55247085    12
CTC2_L_00629012-09
1 10118U 26929UL  26075.70050926  .00000000  00000+0  00000-0 0  9997
2 10118  70.0000 330.0000 0000000   0.0000  60.0000  4.55247085    13
CTC2_L_00629012-10
1 10119U 22921YA  26075.70050926  .00000000  00000+0  00000-0 0  9996
2 10119  70.0000 330.0000 0000000   0.0000  96.0000  4.55247085    13
